PERSEUS-M1              
1 40039U 14033AF  26157.66616448  .00002719  00000+0  25013-3 0  9991
2 40039  97.9642 101.6258 0010860 341.2925  18.7895 14.95601690649063
POLYITAN-1              
1 40042U 14033AJ  26157.87019680  .00021098  00000+0  66513-3 0  9994
2 40042  98.0951 183.1584 0007835 171.6009 188.5364 15.32894505652012
TIGRISAT                
1 40043U 14033AK  26158.14437263  .00002435  00000+0  28443-3 0  9991
2 40043  97.7825 308.3873 0050697 107.2670 253.4101 14.85122342644139
AEROCUBE 6A             
1 40045U 14033AM  26158.33836361  .00006738  00000+0  56645-3 0  9991
2 40045  97.7225 325.3925 0039341  50.4969 309.9721 14.98000645645147
AEROCUBE 6B             
1 40046U 14033AN  26158.21684015  .00007510  00000+0  60745-3 0  9991
2 40046  97.7234 325.0394 0038935  43.1122 317.3139 14.99460154645268
CANX-4                  
1 40055U 14034C   26158.22191184  .00001176  00000+0  15813-3 0  9991
2 40055  98.3134  33.1687 0013799  47.2839 312.9532 14.81247210643057
CANX-5                  
1 40056U 14034D   26158.22046053  .00001180  00000+0  15855-3 0  9997
2 40056  98.3136  33.2102 0013794  47.4594 312.7779 14.81264320633868
UKUBE-1                 
1 40074U 14037F   26158.38339659  .00008765  00000+0  49514-3 0  9999
2 40074  98.4242 160.6265 0002048 144.2736 215.8630 15.13396415647070
BRITE-PL2 (HEWELIUSZ)   
1 40119U 14049B   26158.26377524  .00003014  00000+0  28361-3 0  9991
2 40119  97.9087 270.1883 0015105 138.2185 222.0191 14.94560188639962
AEROCUBE 5C             
1 40965U 15058B   26158.11273843  .00003078  00000+0  27614-3 0  9994
2 40965  64.7683 293.9303 0130376  67.2175 294.2650 14.91405632364159
AEROCUBE 7              
1 40966U 15058C   26158.07092630  .00004175  00000+0  33773-3 0  9995
2 40966  64.7629 276.5006 0120099  65.7312 295.6293 14.95660102364443
FOX-1A (AO-85)          
1 40967U 15058D   26157.62044007  .00003329  00000+0  30158-3 0  9995
2 40967  64.7764 311.8208 0129891  60.7292 300.6731 14.90916620111990
SINOD-D 1               
1 40968U 15058E   26158.11694669  .00004197  00000+0  33912-3 0  9991
2 40968  64.7760 290.4471 0118484  57.0968 304.1480 14.95839766115158
SNAP-3 ALICE            
1 40970U 15058G   26158.23055882  .00119614  00000+0  15421-2 0  9990
2 40970  64.7499 138.2889 0031026  17.6779 342.5437 15.57814323115339
LMRST-SAT               
1 40971U 15058H   26157.77434296  .00003354  00000+0  30547-3 0  9999
2 40971  64.7770 307.6608 0131558  62.6902 298.7533 14.90541819112005
SNAP-3 EDDIE            
1 40972U 15058J   26158.22836006  .00110116  00000+0  13603-2 0  9994
2 40972  64.7421 129.0943 0030744  21.8813 338.3637 15.58986461117473
PROPCUBE 3              
1 40973U 15058K   26157.63466296  .00004036  00000+0  33723-3 0  9998
2 40973  64.7695 285.5042 0123585  64.1044 297.2748 14.94197291113226
BISONSAT                
1 40974U 15058L   26158.40251866  .00010158  00000+0  49643-3 0  9990
2 40974  64.7586 205.2734 0078342  51.2722 309.5371 15.15990070114133
SNAP-3 JIMI             
1 40975U 15058M   26157.60443898  .00006350  00000+0  43791-3 0  9997
2 40975  64.7651 253.2536 0105647  59.7101 301.4419 15.02206649112638
PROPCUBE 1 (FLORA)      
1 40976U 15058N   26158.18979109  .00003226  00000+0  30603-3 0  9998
2 40976  64.7758 326.2201 0130291  64.8488 296.6072 14.89174144114770
SINOD-D 3               
1 40977U 15058P   26158.13320120  .00004296  00000+0  36433-3 0  9992
2 40977  64.7736 307.2134 0118809  62.1322 299.1766 14.93950826113254
HORYU-4                 
1 41340U 16012D   26158.28323697  .00308228  00000+0  10049-2 0  9992
2 41340  30.9849 151.3730 0002759 206.2539 153.7981 15.88791967569237
RAVAN                   
1 41849U 16067B   26158.45062880  .00046752  00000+0  72790-3 0  9992
2 41849  97.9897  46.9039 0005746  58.2428 301.9382 15.53744967526188
CELTEE 1                
1 41850U 16067C   26158.13256500  .00005641  00000+0  26868-3 0  9990
2 41850  98.0683  24.0137 0000623  91.6149 268.5155 15.19583043524352
OPTICUBE 04             
1 41851U 16067D   26158.13683402  .00003228  00000+0  20464-3 0  9991
2 41851  98.0710   9.8961 0016334 147.5020 212.7216 15.09616887523658
AEROCUBE 8D             
1 41852U 16067E   26158.17768897  .00008613  00000+0  35601-3 0  9990
2 41852  98.0695  27.5877 0004087 149.3086 210.8389 15.24257770524546
AEROCUBE 8C             
1 41853U 16067F   26158.13866617  .00008161  00000+0  33498-3 0  9996
2 41853  98.0566  24.7861 0006798  95.5689 264.6322 15.24502258524535
CORVUS BC2              
1 42846U 17042X   26157.69867995  .00003855  00000+0  26634-3 0  9992
2 42846  97.4066 319.4581 0014151 142.1285 218.0941 15.06231398485486
CORVUS BC1              
1 42847U 17042Y   26157.22949516  .00003751  00000+0  25816-3 0  9998
2 42847  97.4093 319.8140 0013365 122.2429 238.0096 15.06396296485445
MAKERSAT 0              
1 43016U 17073D   26158.18611875  .00019679  00000+0  53940-3 0  9996
2 43016  97.4648  40.6287 0106176 309.1965  49.9883 15.31738799464935
